     2.100          NAVIGATION                              RINEX VERSION / TYPE
fic2rin                                 10/09/2008 01:25:01 PGM / RUN BY / DATE
                                                            END OF HEADER
13 08 10  8 18  0  0.0  .273551791906D-03  .113686837722D-11  .000000000000D+00
     .107000000000D+03  .512812500000D+02  .355086219338D-08  .211180953097D+01
     .264681875706D-05  .365624867845D-02  .718235969543D-05  .515356807137D+04
     .324000000000D+06  .428408384323D-07 -.398699689317D+00 -.298023223877D-07
     .995633855781D+00  .256343750000D+03  .155336208543D+01 -.763638951485D-08
     .117147736816D-09  .100000000000D+01  .150000000000D+04  .000000000000D+00
     .340000000000D+01  .000000000000D+00 -.111758708954D-07  .107000000000D+03
     .316806000000D+06  .400000000000D+01
14 08 10  8 18  0  0.0 -.209974590689D-03  .477484718431D-11  .000000000000D+00
     .690000000000D+02  .610312500000D+02  .368765360557D-08  .184924594792D+01
     .317208468914D-05  .427468365524D-02  .698119401932D-05  .515374559402D+04
     .324000000000D+06 -.726431608200D-07 -.416780043076D+00 -.912696123123D-07
     .989281855240D+00  .257656250000D+03 -.217074211347D+01 -.780353933445D-08
     .128219626576D-09  .100000000000D+01  .150000000000D+04  .000000000000D+00
     .240000000000D+01  .000000000000D+00 -.931322574615D-08  .690000000000D+02
     .316806000000D+06  .400000000000D+01
16 08 10  8 18  0  0.0  .102600082755D-03 -.216004991671D-11  .000000000000D+00
     .300000000000D+01 -.891562500000D+02  .442982737723D-08 -.261390321282D+01
    -.441260635853D-05  .471629924141D-02  .840984284878D-05  .515368699074D+04
     .324000000000D+06 -.763684511185D-07  .166438384694D+01  .558793544769D-07
     .966218248057D+00  .220968750000D+03 -.392025984313D+00 -.790747223510D-08
     .550022910662D-10  .100000000000D+01  .150000000000D+04  .000000000000D+00
     .240000000000D+01  .000000000000D+00 -.977888703346D-08  .300000000000D+01
     .316806000000D+06  .400000000000D+01
17 08 10  8 18  0  0.0  .393032096326D-04  .227373675443D-12  .000000000000D+00
     .320000000000D+02 -.390625000000D+01  .456340436982D-08  .252636402507D+01
    -.147148966789D-06  .386084732600D-02  .923313200474D-05  .515360068893D+04
     .324000000000D+06 -.128522515297D-06  .270599444719D+01 -.633299350739D-07
     .959910619285D+00  .201281250000D+03 -.279332145915D+01 -.789532887214D-08
     .244653047924D-09  .100000000000D+01  .150000000000D+04  .000000000000D+00
     .240000000000D+01  .000000000000D+00 -.102445483208D-07  .320000000000D+02
     .316806000000D+06  .400000000000D+01
18 08 10  8 18  0  0.0 -.125574413687D-03  .397903932026D-11  .000000000000D+00
     .530000000000D+02  .256250000000D+02  .467733768703D-08 -.246193345410D+01
     .134110450745D-05  .990688719321D-02  .793486833572D-05  .515372545242D+04
     .324000000000D+06  .782310962677D-07 -.146284451351D+01 -.154599547386D-06
     .945494808020D+00  .217718750000D+03 -.245358339858D+01 -.800033324599D-08
    -.259653672761D-09  .100000000000D+01  .150000000000D+04  .000000000000D+00
     .240000000000D+01  .000000000000D+00 -.107102096081D-07  .530000000000D+02
     .316806000000D+06  .400000000000D+01
19 08 10  8 18  0  0.0  .356617383659D-04  .000000000000D+00  .000000000000D+00
     .101000000000D+03 -.343750000000D+00  .474519765653D-08  .193917344307D+01
     .182539224625D-06  .490656006150D-02  .906921923161D-05  .515373979950D+04
     .324000000000D+06  .158324837685D-06  .276269014456D+01  .298023223877D-07
     .957704023874D+00  .199843750000D+03 -.464437317610D+00 -.799211861811D-08
     .160363822654D-09  .100000000000D+01  .150000000000D+04  .000000000000D+00
     .240000000000D+01  .000000000000D+00 -.144354999065D-07  .101000000000D+03
     .316806000000D+06  .400000000000D+01
20 08 10  8 18  0  0.0  .102457590401D-03 -.102318153949D-11  .000000000000D+00
     .410000000000D+02  .161562500000D+02  .474662628747D-08 -.238136898722D+01
     .946223735809D-06  .352108792868D-02  .837445259094D-05  .515375999260D+04
     .324000000000D+06  .931322574615D-08 -.151655866973D+01 -.745058059692D-07
     .945042700502D+00  .211500000000D+03  .135026315698D+01 -.806640742682D-08
    -.416803075807D-09  .100000000000D+01  .150000000000D+04  .000000000000D+00
     .240000000000D+01  .000000000000D+00 -.651925802231D-08  .410000000000D+02
     .316806000000D+06  .400000000000D+01
21 08 10  8 18  0  0.0  .475049018860D-04 -.147792889038D-11  .000000000000D+00
     .270000000000D+02  .241250000000D+02  .528414867743D-08 -.124900430655D+01
     .114925205708D-05  .143124538008D-01  .625476241112D-05  .515367562866D+04
     .324000000000D+06  .271946191788D-06 -.252164227703D+01 -.169500708580D-06
     .935568054508D+00  .243375000000D+03 -.267363676345D+01 -.830534595100D-08
    -.696457581682D-10  .100000000000D+01  .150000000000D+04  .000000000000D+00
     .240000000000D+01  .000000000000D+00 -.116415321827D-07  .270000000000D+02
     .316806000000D+06  .400000000000D+01
22 08 10  8 18  0  0.0  .210482161492D-03 -.227373675443D-12  .000000000000D+00
     .780000000000D+02  .325000000000D+02  .473341145130D-08  .261584034164D+01
     .161863863468D-05  .516550964676D-02  .808201730251D-05  .515366943932D+04
     .324000000000D+06  .540167093277D-07 -.145664506314D+01 -.521540641785D-07
     .943145725851D+00  .212718750000D+03 -.182252026034D+01 -.805533553706D-08
    -.366443835285D-09  .100000000000D+01  .150000000000D+04  .000000000000D+00
     .340000000000D+01  .000000000000D+00 -.176951289177D-07  .780000000000D+02
     .316806000000D+06  .400000000000D+01
23 08 10  8 18  0  0.0  .376005191356D-03  .136424205266D-11  .000000000000D+00
     .380000000000D+02  .602500000000D+02  .409124184522D-08  .128626634853D+01
     .323355197906D-05  .587072211783D-02  .694580376148D-05  .515368939590D+04
     .324000000000D+06  .447034835815D-07 -.445244505352D+00  .106170773506D-06
     .971353075886D+00  .248218750000D+03  .284959714690D+01 -.792675875275D-08
     .528593446610D-10  .100000000000D+01  .150000000000D+04  .000000000000D+00
     .240000000000D+01  .000000000000D+00 -.200234353542D-07  .380000000000D+02
     .316806000000D+06  .400000000000D+01
24 08 10  8 18  0  0.0  .131590291858D-03  .306954461848D-11  .000000000000D+00
     .101000000000D+03  .209687500000D+02  .487877464912D-08 -.259076214559D+01
     .992789864540D-06  .745258212555D-02  .680610537529D-05  .515365811539D+04
     .324000000000D+06 -.298023223877D-07 -.249341288813D+01  .147148966789D-06
     .952202417613D+00  .245750000000D+03 -.696206529214D+00 -.805676416800D-08
    -.223937899341D-09  .100000000000D+01  .150000000000D+04  .000000000000D+00
     .340000000000D+01  .000000000000D+00 -.139698386192D-08  .101000000000D+03
     .316806000000D+06  .400000000000D+01
25 08 10  8 18  0  0.0 -.831680372357D-04  .380850906367D-10  .000000000000D+00
     .700000000000D+01 -.128125000000D+01  .440482633584D-08 -.207871539525D+01
     .165775418282D-06  .115904473932D-01  .370666384697D-05  .515369348335D+04
     .324000000000D+06  .819563865662D-07  .502329948973D+00  .303611159325D-06
     .966746743305D+00  .309062500000D+03 -.125089955203D+01 -.808926552181D-08
     .153220667970D-09  .100000000000D+01  .150000000000D+04  .000000000000D+00
     .240000000000D+01  .000000000000D+00 -.745058059692D-08  .700000000000D+01
     .316806000000D+06  .400000000000D+01
27 08 10  8 18  0  0.0  .223641749471D-03  .306954461848D-11  .000000000000D+00
     .560000000000D+02 -.521875000000D+01  .420517516242D-08 -.212222186649D+01
    -.109896063805D-06  .212289652554D-01  .313669443130D-05  .515372184563D+04
     .324000000000D+06  .359490513802D-06  .537602144419D+00  .102445483208D-06
     .971345951475D+00  .315937500000D+03 -.168327041632D+01 -.779425323336D-08
     .255367779950D-09  .100000000000D+01  .150000000000D+04  .000000000000D+00
     .240000000000D+01  .000000000000D+00 -.419095158577D-08  .560000000000D+02
     .316806000000D+06  .400000000000D+01
28 08 10  8 18  0  0.0 -.229994766414D-04 -.113686837722D-12  .000000000000D+00
     .410000000000D+02 -.801875000000D+02  .435446709532D-08  .296113552915D+01
    -.419095158577D-05  .140554800164D-01  .779144465923D-05  .515363940239D+04
     .324000000000D+06  .689178705215D-07  .167288346828D+01 -.178813934326D-06
     .964390233901D+00  .232062500000D+03 -.209070952850D+01 -.770924969262D-08
     .464305054455D-10  .100000000000D+01  .150000000000D+04  .000000000000D+00
     .240000000000D+01  .000000000000D+00 -.102445483208D-07  .410000000000D+02
     .316806000000D+06  .400000000000D+01
30 08 10  8 18  0  0.0  .100920442492D-03  .216004991671D-11  .000000000000D+00
     .320000000000D+02 -.857187500000D+02  .471698219553D-08 -.289670132136D+01
    -.449270009995D-05  .111430760007D-01  .786967575550D-05  .515368849373D+04
     .324000000000D+06  .182539224625D-06  .160377809285D+01 -.223517417908D-07
     .949507519165D+00  .218437500000D+03  .140712327903D+01 -.800640492747D-08
     .860750139413D-10  .100000000000D+01  .150000000000D+04  .000000000000D+00
     .240000000000D+01  .000000000000D+00 -.791624188423D-08  .320000000000D+02
     .316806000000D+06  .400000000000D+01
31 08 10  8 18  0  0.0 -.312342308462D-04 -.238742359215D-11  .000000000000D+00
     .450000000000D+02 -.194062500000D+02  .449232998072D-08 -.426433792668D+00
    -.120699405670D-05  .673736142926D-02  .390224158764D-05  .515355343628D+04
     .324000000000D+06 -.156462192535D-06  .594033444220D+00  .372529029846D-08
     .969730237454D+00  .310406250000D+03 -.124017137542D+01 -.833713298934D-08
     .159649507186D-09  .100000000000D+01  .150000000000D+04  .000000000000D+00
     .240000000000D+01  .000000000000D+00 -.130385160446D-07  .450000000000D+02
     .316806000000D+06  .400000000000D+01
